IRIDIUM 33 DEB          
1 35628U 97051RA  18247.31508766  .00000494  00000-0  13786-3 0  9999
2 35628  86.3612  78.1398 0018130 199.8760 160.1738 14.44222966486207
IRIDIUM 33 DEB          
1 35629U 97051RB  18247.05929757  .00004490  00000-0  86968-3 0  9990
2 35629  86.3715 106.8458 0115386 277.7051  81.1068 14.58897065483352
IRIDIUM 33 DEB          
1 35631U 97051RD  18247.00890894  .00000249  00000-0  69903-4 0  9996
2 35631  86.3651  76.6646 0016430 271.3340 241.5764 14.41905304491585
IRIDIUM 33 DEB          
1 35632U 97051RE  18246.74842258  .00001711  00000-0  69137-3 0  9991
2 35632  86.4283 161.2797 0101184 206.3217 153.2813 14.24603208476832
IRIDIUM 33 DEB          
1 35678U 97051RG  18246.92534129  .00002988  00000-0  40506-3 0  9992
2 35678  86.3559  45.9583 0002026 323.1682  36.9399 14.78610791489134
IRIDIUM 33 DEB          
1 35679U 97051RH  18246.38966733  .00007860  00000-0  69662-3 0  9991
2 35679  86.3157  39.0513 0013788 297.4602  62.5225 14.96026299490654
IRIDIUM 33 DEB          
1 35680U 97051RJ  18246.83801019  .00000448  00000-0  25087-3 0  9996
2 35680  86.1061  86.2698 0195190 242.2686 177.8212 13.99661080471788
IRIDIUM 33 DEB          
1 35732U 97051RK  18246.68678336  .00001484  00000-0  38229-3 0  9994
2 35732  86.2417  44.4613 0056703 258.2546 101.2292 14.48500928485606
IRIDIUM 33 DEB          
1 35735U 97051RN  18247.13029381  .00004237  00000-0  39486-3 0  9993
2 35735  86.3771  30.2320 0011755 182.9501 177.1661 14.93968257494215
IRIDIUM 33 DEB          
1 35737U 97051RQ  18247.14507796  .00001466  00000-0  34085-3 0  9998
2 35737  86.4264 124.3956 0048058 287.1827 227.6655 14.53592902492689
IRIDIUM 33 DEB          
1 35739U 97051RS  18246.33619711  .00002960  00000-0  58391-3 0  9997
2 35739  86.3937 106.9453 0058997 234.0020 125.5714 14.61057439490460
IRIDIUM 33 DEB          
1 35742U 97051RV  18246.92301742  .00001652  00000-0  36085-3 0  9991
2 35742  86.4286 114.0683 0050260  96.7264 263.9668 14.56438450487679
IRIDIUM 33 DEB          
1 35744U 97051RX  18246.73734441  .00000477  00000-0  11789-3 0  9996
2 35744  86.3349  52.7211 0034464 148.7880 211.5381 14.49594684488233
IRIDIUM 33 DEB          
1 35745U 97051RY  18246.96024126  .00002460  00000-0  62129-3 0  9992
2 35745  86.3553 116.9491 0066139   7.6843 352.5357 14.49353609343778
IRIDIUM 33 DEB          
1 35747U 97051SA  18247.31697420  .00000716  00000-0  33329-3 0  9999
2 35747  86.1319  79.8374 0186345 122.8924 239.0343 14.10335806468327
IRIDIUM 33 DEB          
1 35749U 97051SC  18247.51750611  .00001046  00000-0  24384-3 0  9993
2 35749  86.3746  76.9008 0015321  21.1946 338.9892 14.53805804482946
IRIDIUM 33 DEB          
1 35797U 97051SF  18247.17426531  .00000585  00000-0  14468-3 0  9998
2 35797  86.3454  58.6892 0025808 153.5062 206.7468 14.50145867488235
IRIDIUM 33 DEB          
1 35799U 97051SH  18247.37965171  .00001912  00000-0  44817-3 0  9996
2 35799  85.9354 270.7986 0082504 147.5425 213.0893 14.51928092495752
IRIDIUM 33 DEB          
1 35800U 97051SJ  18247.00934311  .00003941  00000-0  35187-3 0  9995
2 35800  86.2632 338.3491 0028232 134.3394 226.0157 14.95350227498732
IRIDIUM 33 DEB          
1 35802U 97051SL  18247.49407500  .00002445  00000-0  69878-3 0  9997
2 35802  86.4588 149.7681 0102529  12.3410 114.2491 14.41699068492224
IRIDIUM 33 DEB          
1 35805U 97051SP  18247.06675671  .00001769  00000-0  67531-3 0  9991
2 35805  86.3234 119.5086 0108036 191.9480 167.9148 14.27081022473905
IRIDIUM 33 DEB          
1 35806U 97051SQ  18238.84271592  .00000604  00000-0  18927-3 0  9994
2 35806  86.3461  86.4045 0015507 243.0337 116.9278 14.38949950479308
IRIDIUM 33 DEB          
1 35809U 97051ST  18247.26503566  .00000573  00000-0  15039-3 0  9998
2 35809  86.3350  60.5490 0023920 176.8723 303.6707 14.47311853482812
IRIDIUM 33 DEB          
1 35844U 97051SU  18243.10456090  .00006295  00000-0  53690-3 0  9997
2 35844  86.3046   9.0119 0013000 316.4644  43.5560 14.97499378485871
IRIDIUM 33 DEB          
1 35846U 97051SW  18246.30797938  .00000173  00000-0  54232-4 0  9996
2 35846  86.3763 100.1669 0017322 237.4066 122.5459 14.34757912331667
IRIDIUM 33 DEB          
1 35848U 97051SY  18246.24885370  .00000530  00000-0  13569-3 0  9993
2 35848  86.3967  84.5769 0015893 178.1289 181.9977 14.48479203280442
IRIDIUM 33 DEB          
1 35850U 97051TA  18247.24470710  .00000556  00000-0  14065-3 0  9995
2 35850  86.3568  66.1196 0020130 167.7340 192.4358 14.49101170487900
IRIDIUM 33 DEB          
1 35851U 97051TB  18246.91936547  .00003372  00000-0  69905-3 0  9996
2 35851  86.4173 112.2681 0068596 195.9021 164.0036 14.58454478493595
IRIDIUM 33 DEB          
1 35853U 97051TD  18246.81955163  .00002682  00000-0  64308-3 0  9997
2 35853  86.3056  75.4559 0063403 238.6644 120.8347 14.51922810473796
IRIDIUM 33 DEB          
1 35856U 97051TG  18247.51466080  .00000809  00000-0  12992-3 0  9994
2 35856  86.3733  64.1121 0058517 335.3030  77.6651 14.69144213480668
IRIDIUM 33 DEB          
1 35857U 97051TH  18246.51959324  .00000999  00000-0  18500-3 0  9993
2 35857  86.4306  80.5693 0051052  70.5631 290.1087 14.63391371320261
IRIDIUM 33 DEB          
1 35858U 97051TJ  18246.51393489  .00001468  00000-0  32033-3 0  9997
2 35858  86.3607  86.4791 0015543  91.3686 268.9304 14.57139595485656
IRIDIUM 33 DEB          
1 35862U 97051TN  18246.79418119  .00002519  00000-0  36055-3 0  9996
2 35862  86.3755  58.6056 0025549 321.2011  95.5152 14.76007773485304
IRIDIUM 33 DEB          
1 35863U 97051TP  18246.55254499  .00002328  00000-0  62372-3 0  9999
2 35863  86.3392  97.4968 0086422 337.5211  22.2212 14.45639655478744
IRIDIUM 33 DEB          
1 35911U 97051TU  18247.48900671  .00001070  00000-0  40252-3 0  9992
2 35911  86.2333  75.5571 0093667 141.8931 218.8936 14.28190587488163
IRIDIUM 33 DEB          
1 35915U 97051TY  18245.80846124  .00000580  00000-0  14861-3 0  9994
2 35915  86.3527  66.6026 0024339 169.3247 190.8478 14.48510291477948
IRIDIUM 33 DEB          
1 35917U 97051UA  18246.24222766  .00001802  00000-0  34341-3 0  9998
2 35917  86.3877  69.6545 0022845  48.9437 311.3744 14.63337620203460
IRIDIUM 33 DEB          
1 35918U 97051UB  18246.91894740  .00000422  00000-0  13862-3 0  9992
2 35918  86.4063 113.2059 0029585 278.0110 141.9487 14.35753384469819
IRIDIUM 33 DEB          
1 35921U 97051UE  18247.05889411  .00002827  00000-0  11516-2 0  9995
2 35921  86.4250 171.5396 0139415 311.5880  47.3427 14.22038053485910
IRIDIUM 33 DEB          
1 35922U 97051UF  18246.80896854  .00000956  00000-0  22233-3 0  9997
2 35922  86.3879  79.5601 0032403 122.4004 238.0344 14.53571625477659
IRIDIUM 33 DEB          
1 35925U 97051UJ  18246.19364757  .00003041  00000-0  43004-3 0  9991
2 35925  86.3165  37.3871 0011338 227.2186 132.8081 14.76769897493573
IRIDIUM 33 DEB          
1 35926U 97051UK  18247.47945708  .00001172  00000-0  24040-3 0  9997
2 35926  86.3463  52.9635 0009966 127.6041 232.6075 14.59845123484304
IRIDIUM 33 DEB          
1 35929U 97051UN  18246.20194014  .00000638  00000-0  14400-3 0  9991
2 35929  86.3499  52.7236 0033336 111.2526 249.2247 14.54370280489106
IRIDIUM 33 DEB          
1 36011U 97051US  18246.84347400  .00000241  00000-0  78610-4 0  9997
2 36011  86.3399  85.9297 0018512 273.4909 146.6939 14.34312486473145
IRIDIUM 33 DEB          
1 36012U 97051UT  18246.77670666  .00000402  00000-0  22935-3 0  9990
2 36012  86.4559 253.3265 0309136 109.0039 254.4892 13.85637768466128
IRIDIUM 33 DEB          
1 36017U 97051UY  18246.18236288  .00003032  00000-0  39531-3 0  9990
2 36017  86.3668  49.9833 0012964 234.3011 247.3505 14.80200339274748
IRIDIUM 33 DEB          
1 36019U 97051VA  18247.26651826  .00000931  00000-0  21280-3 0  9998
2 36019  86.3918  77.4148 0007462 191.7323 293.0664 14.54676836476829
IRIDIUM 33 DEB          
1 36021U 97051VC  18247.17240993  .00001359  00000-0  45942-3 0  9996
2 36021  86.4222 154.2905 0129091 167.8827 192.5525 14.31545140470070
IRIDIUM 33 DEB          
1 36023U 97051VE  18247.25519606  .00001363  00000-0  32467-3 0  9990
2 36023  86.3391  71.0885 0028942 129.4411 230.9363 14.52818026476282
IRIDIUM 33 DEB          
1 36025U 97051VG  18247.11501314  .00001669  00000-0  38187-3 0  9998
2 36025  86.5633 179.0018 0047182 236.7126 122.9557 14.54424843476742
IRIDIUM 33 DEB          
1 36028U 97051VK  18246.71555925  .00000625  00000-0  14300-3 0  9995
2 36028  86.3368  47.9028 0036313 110.9643 249.5455 14.53590267483949
IRIDIUM 33 DEB          
1 36080U 97051VM  18246.78155021  .00000286  00000-0  89263-4 0  9997
2 36080  86.3187  71.4566 0017273 264.1200  95.8028 14.37307542473525
IRIDIUM 33 DEB          
1 36081U 97051VN  18230.81896906  .00001390  00000-0  40287-3 0  9998
2 36081  86.2349  60.4367 0069257  26.3952 334.0748 14.42363340236936
IRIDIUM 33 DEB          
1 36083U 97051VQ  18244.83101290  .00000265  00000-0  85749-4 0  9995
2 36083  86.3426  86.6193 0028034 300.4396  59.4031 14.35070599473702
IRIDIUM 33 DEB          
1 36390U 97051VU  18246.14309754  .00000484  00000-0  11770-3 0  9992
2 36390  86.3030  39.3889 0048694 131.3195 229.2216 14.49906950276070
IRIDIUM 33 DEB          
1 36483U 97051VZ  18247.27948517  .00000275  00000-0  86368-4 0  9990
2 36483  86.3799  96.2567 0008398 211.1805 148.8895 14.36921070476743
IRIDIUM 33 DEB          
1 36485U 97051WB  18245.54374629  .00002014  00000-0  76384-3 0  9996
2 36485  86.4466 169.7641 0107300 221.7297 137.5676 14.27552043455223
IRIDIUM 33 DEB          
1 36486U 97051WC  18247.22571740  .00001363  00000-0  26683-3 0  9990
2 36486  86.3512  54.1824 0020489  58.5876 301.7336 14.61989537498298
IRIDIUM 33 DEB          
1 36487U 97051WD  18246.07833469  .00002287  00000-0  11066-2 0  9996
2 36487  86.3795 175.7365 0170525 115.7603 246.1290 14.10778578453694
